CCSDS_OMM_VERS = 2.0
CREATION_DATE  = 
ORIGINATOR     = 

OBJECT_NAME    = ATLAS CENTAUR 2
OBJECT_ID      = 1963-047A
CENTER_NAME    = EARTH
REF_FRAME      = TEME
TIME_SYSTEM    = UTC
MEAN_ELEMENT_THEORY = SGP/SGP4

EPOCH          = 2025-12-10T16:09:34.695072
MEAN_MOTION    = 14.11741999
ECCENTRICITY   = .0548968
INCLINATION    = 30.3556
RA_OF_ASC_NODE = 333.0006
ARG_OF_PERICENTER = 15.9670
MEAN_ANOMALY   = 345.7518

EPHEMERIS_TYPE = 0
CLASSIFICATION_TYPE = U
NORAD_CAT_ID   = 694
ELEMENT_SET_NO = 999
REV_AT_EPOCH   = 11903
BSTAR          = .55892E-3
MEAN_MOTION_DOT = .4629E-4
MEAN_MOTION_DDOT = 0

CCSDS_OMM_VERS = 2.0
CREATION_DATE  = 
ORIGINATOR     = 

OBJECT_NAME    = THOR AGENA D R/B
OBJECT_ID      = 1964-002A
CENTER_NAME    = EARTH
REF_FRAME      = TEME
TIME_SYSTEM    = UTC
MEAN_ELEMENT_THEORY = SGP/SGP4

EPOCH          = 2025-12-10T11:44:55.715136
MEAN_MOTION    = 14.33957448
ECCENTRICITY   = .00332608
INCLINATION    = 99.1218
RA_OF_ASC_NODE = 347.9866
ARG_OF_PERICENTER = 156.6761
MEAN_ANOMALY   = 203.5939

EPHEMERIS_TYPE = 0
CLASSIFICATION_TYPE = U
NORAD_CAT_ID   = 733
ELEMENT_SET_NO = 999
REV_AT_EPOCH   = 22551
BSTAR          = .1540425E-3
MEAN_MOTION_DOT = .384E-5
MEAN_MOTION_DDOT = 0

CCSDS_OMM_VERS = 2.0
CREATION_DATE  = 
ORIGINATOR     = 

OBJECT_NAME    = SL-3 R/B
OBJECT_ID      = 1964-053B
CENTER_NAME    = EARTH
REF_FRAME      = TEME
TIME_SYSTEM    = UTC
MEAN_ELEMENT_THEORY = SGP/SGP4

EPOCH          = 2025-12-10T00:57:50.759712
MEAN_MOTION    = 14.61272073
ECCENTRICITY   = .00736399
INCLINATION    = 65.0768
RA_OF_ASC_NODE = 234.0465
ARG_OF_PERICENTER = 321.2453
MEAN_ANOMALY   = 38.3377

EPHEMERIS_TYPE = 0
CLASSIFICATION_TYPE = U
NORAD_CAT_ID   = 877
ELEMENT_SET_NO = 999
REV_AT_EPOCH   = 25369
BSTAR          = .12944851E-3
MEAN_MOTION_DOT = .54E-5
MEAN_MOTION_DDOT = 0

CCSDS_OMM_VERS = 2.0
CREATION_DATE  = 
ORIGINATOR     = 

OBJECT_NAME    = SL-8 R/B
OBJECT_ID      = 1967-045B
CENTER_NAME    = EARTH
REF_FRAME      = TEME
TIME_SYSTEM    = UTC
MEAN_ELEMENT_THEORY = SGP/SGP4

EPOCH          = 2025-12-10T12:12:51.427584
MEAN_MOTION    = 14.45533156
ECCENTRICITY   = .00643785
INCLINATION    = 74.0096
RA_OF_ASC_NODE = 154.6284
ARG_OF_PERICENTER = 184.5387
MEAN_ANOMALY   = 175.5196

EPHEMERIS_TYPE = 0
CLASSIFICATION_TYPE = U
NORAD_CAT_ID   = 2802
ELEMENT_SET_NO = 999
REV_AT_EPOCH   = 7613
BSTAR          = .19627607E-3
MEAN_MOTION_DOT = .682E-5
MEAN_MOTION_DDOT = 0

CCSDS_OMM_VERS = 2.0
CREATION_DATE  = 
ORIGINATOR     = 

OBJECT_NAME    = SL-8 R/B
OBJECT_ID      = 1968-040B
CENTER_NAME    = EARTH
REF_FRAME      = TEME
TIME_SYSTEM    = UTC
MEAN_ELEMENT_THEORY = SGP/SGP4

EPOCH          = 2025-12-10T17:01:35.692032
MEAN_MOTION    = 15.02502023
ECCENTRICITY   = .0025343
INCLINATION    = 74.0304
RA_OF_ASC_NODE = 135.4029
ARG_OF_PERICENTER = 337.2778
MEAN_ANOMALY   = 22.7285

EPHEMERIS_TYPE = 0
CLASSIFICATION_TYPE = U
NORAD_CAT_ID   = 3230
ELEMENT_SET_NO = 999
REV_AT_EPOCH   = 7664
BSTAR          = .45525E-3
MEAN_MOTION_DOT = .6051E-4
MEAN_MOTION_DDOT = 0

CCSDS_OMM_VERS = 2.0
CREATION_DATE  = 
ORIGINATOR     = 

OBJECT_NAME    = OAO 2
OBJECT_ID      = 1968-110A
CENTER_NAME    = EARTH
REF_FRAME      = TEME
TIME_SYSTEM    = UTC
MEAN_ELEMENT_THEORY = SGP/SGP4

EPOCH          = 2025-12-10T13:55:27.310944
MEAN_MOTION    = 14.47242388
ECCENTRICITY   = .0005744
INCLINATION    = 34.9944
RA_OF_ASC_NODE = 42.7152
ARG_OF_PERICENTER = 208.2248
MEAN_ANOMALY   = 151.8132

EPHEMERIS_TYPE = 0
CLASSIFICATION_TYPE = U
NORAD_CAT_ID   = 3597
ELEMENT_SET_NO = 999
REV_AT_EPOCH   = 618
BSTAR          = .14412E-3
MEAN_MOTION_DOT = .515E-5
MEAN_MOTION_DDOT = 0

CCSDS_OMM_VERS = 2.0
CREATION_DATE  = 
ORIGINATOR     = 

OBJECT_NAME    = ISIS 1
OBJECT_ID      = 1969-009A
CENTER_NAME    = EARTH
REF_FRAME      = TEME
TIME_SYSTEM    = UTC
MEAN_ELEMENT_THEORY = SGP/SGP4

EPOCH          = 2025-12-10T11:49:53.928192
MEAN_MOTION    = 11.30352973
ECCENTRICITY   = .1706855
INCLINATION    = 88.4485
RA_OF_ASC_NODE = 165.0422
ARG_OF_PERICENTER = 269.2387
MEAN_ANOMALY   = 71.3702

EPHEMERIS_TYPE = 0
CLASSIFICATION_TYPE = U
NORAD_CAT_ID   = 3669
ELEMENT_SET_NO = 999
REV_AT_EPOCH   = 33845
BSTAR          = .23424463E-3
MEAN_MOTION_DOT = .322E-5
MEAN_MOTION_DDOT = 0

CCSDS_OMM_VERS = 2.0
CREATION_DATE  = 
ORIGINATOR     = 

OBJECT_NAME    = SERT 2
OBJECT_ID      = 1970-009A
CENTER_NAME    = EARTH
REF_FRAME      = TEME
TIME_SYSTEM    = UTC
MEAN_ELEMENT_THEORY = SGP/SGP4

EPOCH          = 2025-12-10T14:55:27.141024
MEAN_MOTION    = 13.58717199
ECCENTRICITY   = .0005474
INCLINATION    = 99.2646
RA_OF_ASC_NODE = 287.6406
ARG_OF_PERICENTER = 39.2495
MEAN_ANOMALY   = 139.1663

EPHEMERIS_TYPE = 0
CLASSIFICATION_TYPE = U
NORAD_CAT_ID   = 4327
ELEMENT_SET_NO = 999
REV_AT_EPOCH   = 76779
BSTAR          = .14948E-3
MEAN_MOTION_DOT = .68E-6
MEAN_MOTION_DDOT = 0

CCSDS_OMM_VERS = 2.0
CREATION_DATE  = 
ORIGINATOR     = 

OBJECT_NAME    = SL-3 R/B
OBJECT_ID      = 1971-028B
CENTER_NAME    = EARTH
REF_FRAME      = TEME
TIME_SYSTEM    = UTC
MEAN_ELEMENT_THEORY = SGP/SGP4

EPOCH          = 2025-12-10T17:51:49.455360
MEAN_MOTION    = 15.54272093
ECCENTRICITY   = .0019338
INCLINATION    = 81.2375
RA_OF_ASC_NODE = 161.2884
ARG_OF_PERICENTER = 247.7301
MEAN_ANOMALY   = 112.1898

EPHEMERIS_TYPE = 0
CLASSIFICATION_TYPE = U
NORAD_CAT_ID   = 5118
ELEMENT_SET_NO = 999
REV_AT_EPOCH   = 97482
BSTAR          = .61516E-3
MEAN_MOTION_DOT = .40652E-3
MEAN_MOTION_DDOT = 0

CCSDS_OMM_VERS = 2.0
CREATION_DATE  = 
ORIGINATOR     = 

OBJECT_NAME    = ASTEX 1
OBJECT_ID      = 1971-089A
CENTER_NAME    = EARTH
REF_FRAME      = TEME
TIME_SYSTEM    = UTC
MEAN_ELEMENT_THEORY = SGP/SGP4

EPOCH          = 2025-12-10T15:15:15.045984
MEAN_MOTION    = 14.50638651
ECCENTRICITY   = .0016672
INCLINATION    = 92.7136
RA_OF_ASC_NODE = 122.9382
ARG_OF_PERICENTER = 32.5388
MEAN_ANOMALY   = 327.6842

EPHEMERIS_TYPE = 0
CLASSIFICATION_TYPE = U
NORAD_CAT_ID   = 5560
ELEMENT_SET_NO = 999
REV_AT_EPOCH   = 84939
BSTAR          = .23431E-3
MEAN_MOTION_DOT = .92E-5
MEAN_MOTION_DDOT = 0

CCSDS_OMM_VERS = 2.0
CREATION_DATE  = 
ORIGINATOR     = 

OBJECT_NAME    = SL-8 R/B
OBJECT_ID      = 1971-119B
CENTER_NAME    = EARTH
REF_FRAME      = TEME
TIME_SYSTEM    = UTC
MEAN_ELEMENT_THEORY = SGP/SGP4

EPOCH          = 2025-12-10T17:39:41.696064
MEAN_MOTION    = 14.35655347
ECCENTRICITY   = .055957
INCLINATION    = 73.8891
RA_OF_ASC_NODE = 341.7268
ARG_OF_PERICENTER = 326.3954
MEAN_ANOMALY   = 30.2835

EPHEMERIS_TYPE = 0
CLASSIFICATION_TYPE = U
NORAD_CAT_ID   = 5730
ELEMENT_SET_NO = 999
REV_AT_EPOCH   = 64271
BSTAR          = .97906E-3
MEAN_MOTION_DOT = .18794E-3
MEAN_MOTION_DDOT = 0

CCSDS_OMM_VERS = 2.0
CREATION_DATE  = 
ORIGINATOR     = 

OBJECT_NAME    = OAO 3 (COPERNICUS)
OBJECT_ID      = 1972-065A
CENTER_NAME    = EARTH
REF_FRAME      = TEME
TIME_SYSTEM    = UTC
MEAN_ELEMENT_THEORY = SGP/SGP4

EPOCH          = 2025-12-10T17:04:24.735360
MEAN_MOTION    = 14.59903829
ECCENTRICITY   = .0006255
INCLINATION    = 35.0058
RA_OF_ASC_NODE = 84.2200
ARG_OF_PERICENTER = 157.4074
MEAN_ANOMALY   = 356.7649

EPHEMERIS_TYPE = 0
CLASSIFICATION_TYPE = U
NORAD_CAT_ID   = 6153
ELEMENT_SET_NO = 999
REV_AT_EPOCH   = 83318
BSTAR          = .15111E-3
MEAN_MOTION_DOT = .714E-5
MEAN_MOTION_DDOT = 0

